satname,norad_id,inclination_deg,eccentricity,mean_motion_rev_per_day,perigee_km,apogee_km,l1,l2
STARLINK-1420,45695,53.047,0.0006009,15.66424998,365.0891522531265,373.19803406998744,1 45695U 20035AQ  26144.80251083  .00046029  00000+0  43706-3 0  9996,2 45695  53.0470  11.0978 0006009  92.5788 267.5915 15.66424998331242
STARLINK-1422,45696,53.1581,0.0003656,15.33653403,462.42136118687904,467.42500679341356,1 45696U 20035AR  26144.94031331  .00037467  00000+0  11409-2 0  9994,2 45696  53.1581  54.7778 0003656 103.7681 256.3728 15.33653403330652
STARLINK-1351,45697,53.0445,0.0005343,15.64926688,369.8422391785143,377.0569846319968,1 45697U 20035AS  26144.93677388  .00042169  00000+0  42581-3 0  9993,2 45697  53.0445  10.7029 0005343 104.0217 256.1392 15.64926688331261
STARLINK-1400,45700,53.0439,0.0003656,15.62859443,376.93143931664235,381.87255183020625,1 45700U 20035AV  26144.93781865  .00088532  00000+0  95804-3 0  9994,2 45700  53.0439  13.1120 0003656  62.9384 297.2002 15.62859443331222
STARLINK-1403,45701,53.155,0.0003291,15.32609198,465.7779893348461,470.2841371540744,1 45701U 20035AW  26144.94372106  .00040681  00000+0  12786-2 0  9990,2 45701  53.1550  42.2035 0003291 105.9013 254.2352 15.32609198330821
STARLINK-1407,45703,53.0278,0.0003974,15.71729975,351.27721443903647,356.6278792108533,1 45703U 20035AY  26144.68511819  .00058638  00000+0  44602-3 0  9993,2 45703  53.0278 301.8327 0003974   0.2323 359.8695 15.71729975332201
STARLINK-1411,45706,53.0326,0.0003549,15.83402706,318.4486465303835,323.2035705448234,1 45706U 20035BB  26145.00002315  .00215865  00000+0  95083-3 0  9995,2 45706  53.0326 323.1096 0003549 279.8255  75.0106 15.83402706  6007
STARLINK-1423,45710,53.0452,0.0007098,15.67369596,361.6451278015702,371.21971855471475,1 45710U 20035BF  26144.90543210  .00051606  00000+0  47060-3 0  9995,2 45710  53.0452  10.1306 0007098  64.3088 295.8659 15.67369596331257
STARLINK-1433,45711,53.0448,0.0007082,15.66944987,362.87342516170156,372.4281589903994,1 45711U 20035BG  26144.95086974  .00048834  00000+0  45346-3 0  9994,2 45711  53.0448   8.4640 0007082  69.1445 291.0328 15.66944987331283
STARLINK-1434,45712,53.0526,0.0003363,15.3304377,464.43528182757836,469.0391442232594,1 45712U 20035BH  26144.92327117  .00038010  00000+0  11796-2 0  9995,2 45712  53.0526  25.0730 0003363  66.0989 294.0363 15.33043770331065
STARLINK-1465,45731,53.044,0.0001336,15.64492057,373.79781229535456,375.60217033943445,1 45731U 20038B   26145.00002315  .00044524  00000+0  45718-3 0  9998,2 45731  53.0440 213.5953 0001336  80.4638 227.4600 15.64492057  5906
STARLINK-1471,45735,53.0444,0.0003176,15.52659302,406.80971236343885,411.12087974189217,1 45735U 20038F   26144.29940088  .00019358  00000+0  31553-3 0  9999,2 45735  53.0444 138.6674 0003176  74.0594 286.0765 15.52659302329261
STARLINK-1480,45741,53.0484,0.0005701,15.63395651,374.00519703792634,381.7083811562552,1 45741U 20038M   26144.59952955  .00053416  00000+0  57051-3 0  9999,2 45741  53.0484 209.1299 0005701 344.4870  15.5968 15.63395651328306
STARLINK-1500,45744,53.0339,0.0002153,15.38469934,449.16297988648785,452.10344834068474,1 45744U 20038Q   26144.83262107  .00018499  00000+0  48925-3 0  9994,2 45744  53.0339 194.4890 0002153  97.1777 262.9471 15.38469934328526
STARLINK-1504,45746,53.0197,0.0003711,15.57921258,391.1611455857983,396.18718383224405,1 45746U 20038S   26144.23538659  .00027251  00000+0  36346-3 0  9998,2 45746  53.0197 136.3172 0003711  55.7971 304.3391 15.57921258329273
STARLINK-1506,45747,53.0765,0.0003237,15.28017346,479.5192950113433,483.9603792757098,1 45747U 20038T   26144.57260115  .00005254  00000+0  20224-3 0  9992,2 45747  53.0765 210.8089 0003237 119.6025 240.5297 15.28017346328281
STARLINK-1464,45751,53.0459,0.0003812,15.53221757,404.74007458928463,409.9133121090945,1 45751U 20038X   26144.84696753  .00040413  00000+0  63578-3 0  9993,2 45751  53.0459 199.9002 0003812 358.0620   2.0374 15.53221757328454
STARLINK-1477,45754,53.0462,5.3e-05,15.1815824,511.04189356502775,511.77218523320516,1 45754U 20038AA  26144.62930564  .00022516  00000+0  11008-2 0  9997,2 45754  53.0462 226.7516 0000530 292.3381  67.7556 15.18158240328051
STARLINK-1478,45755,53.0449,0.0004488,15.66614484,365.57157969772834,371.6274503936338,1 45755U 20038AB  26144.54192826  .00042834  00000+0  40431-3 0  9998,2 45755  53.0449 187.5637 0004488  24.5504 335.5724 15.66614484328584
STARLINK-1493,45759,53.0465,0.0007305,15.6269099,374.9508770008788,384.8243509619051,1 45759U 20038AF  26144.85205390  .00066451  00000+0  72660-3 0  9997,2 45759  53.0465 195.3601 0007305 342.9350  17.1417 15.62690990328507
STARLINK-1494,45760,53.0383,0.00051,15.97576662,277.7482036936972,284.5406707596694,1 45760U 20038AG  26145.00002315  .00336336  57265-4  73979-3 0  9995,2 45760  53.0383 126.3976 0005100  40.9557 134.6218 15.97576662  5987
STARLINK-1502,45764,53.0464,0.0006898,15.59111942,385.55718248568337,394.89481607949347,1 45764U 20038AL  26144.87177665  .00091931  00000+0  11474-2 0  9994,2 45764  53.0464 198.7055 0006898 316.4581  43.5885 15.59111942328479
STARLINK-1470,45772,53.0424,0.0003774,15.34026764,461.2306493162596,466.39495302618434,1 45772U 20038AU  26144.38748349  .00032123  00000+0  96894-3 0  9990,2 45772  53.0424 181.2177 0003774 349.9588  10.1336 15.34026764328677
STARLINK-1482,45773,53.1574,0.0004589,15.36539847,453.21419985949433,459.4868925293913,1 45773U 20038AV  26144.87619680  .00022185  00000+0  62184-3 0  9992,2 45773  53.1574 195.4268 0004589 343.1028  16.9822 15.36539847328535
STARLINK-1496,45780,53.0448,0.0007875,15.60349072,381.3207062011106,391.9752425357401,1 45780U 20038BC  26144.37174920  .00069733  00000+0  83379-3 0  9997,2 45780  53.0448 172.1119 0007875  27.1017 333.0405 15.60349072328780
STARLINK-1513,45786,53.1587,0.0001349,15.31694969,469.83107688612836,471.6789079456821,1 45786U 20038BJ  26144.87369633  .00001574  00000+0  62498-4 0  9994,2 45786  53.1587 196.8580 0001349  87.7003 272.4153 15.31694969328516
STARLINK-1522,46027,53.0621,0.0003178,15.1233481,526.8866151421416,531.2768433664551,1 46027U 20055A   26144.29282987  .00010241  00000+0  60034-3 0  9998,2 46027  53.0621 144.8190 0003178   6.9907 353.1128 15.12334810320315
STARLINK-1523,46028,53.1586,0.0001408,15.30187735,474.286733615495,476.21664787080863,1 46028U 20055B   26144.94054769 -.00000109  00000+0  84498-5 0  9991,2 46028  53.1586 132.5273 0001408  89.5613 270.5549 15.30187735320577
STARLINK-1526,46029,53.1591,0.0001104,15.30197361,474.46633807059516,475.9795599473364,1 46029U 20055C   26144.93422572  .00000372  00000+0  24673-4 0  9991,2 46029  53.1591 132.5684 0001104  97.5964 262.5162 15.30197361320568
STARLINK-1555,46032,53.1595,0.0001006,15.30192527,474.5479330782309,475.92683200399824,1 46032U 20055F   26144.85310827  .00002418  00000+0  93749-4 0  9998,2 46032  53.1595 132.9238 0001006  87.0720 273.0395 15.30192527320553
STARLINK-1556,46033,53.1599,0.0001469,15.30190991,474.2352074308992,476.24873017193386,1 46033U 20055G   26144.96688460  .00000830  00000+0  40155-4 0  9991,2 46033  53.1599 132.4135 0001469 117.5234 242.5917 15.30190991320544
STARLINK-1557,46034,53.161,0.0001229,15.30205056,474.35769804223946,476.04224827024245,1 46034U 20055H   26144.25157469  .00002659  00000+0  10185-3 0  9994,2 46034  53.1610 135.7335 0001229  84.9557 275.1585 15.30205056320436
STARLINK-1558,46035,53.1604,0.000118,15.30208028,474.3824066474526,475.99979207890283,1 46035U 20055J   26144.25894579  .00003151  00000+0  11843-3 0  9995,2 46035  53.1604 135.6990 0001180  93.3113 266.8023 15.30208028320463
STARLINK-1560,46036,53.1601,0.0001424,15.30192269,474.26223226721777,476.2140735107614,1 46036U 20055K   26144.96372445  .00000443  00000+0  27095-4 0  9995,2 46036  53.1601 132.4310 0001424 102.3289 257.7871 15.30192269320579
STARLINK-1569,46039,53.1603,0.0001242,15.30205379,474.3478244096568,476.05019307422754,1 46039U 20055N   26144.26210842  .00001453  00000+0  61168-4 0  9994,2 46039  53.1603 135.6753 0001242  92.4947 267.6196 15.30205379320452
STARLINK-1582,46043,53.158,0.0001497,15.31701471,469.71033402494686,471.760886484456,1 46043U 20055S   26144.94621911  .00000400  00000+0  24663-4 0  9997,2 46043  53.1580 132.0514 0001497  83.7117 276.4055 15.31701471320560
STARLINK-1591,46045,53.1584,0.0001522,15.30197192,474.18037215295954,476.2665350750394,1 46045U 20055U   26144.94791888  .00000189  00000+0  18500-4 0  9997,2 46045  53.1584 132.4941 0001522  75.4872 284.6298 15.30197192320545
STARLINK-1524,46047,53.1605,0.0001318,15.31741784,469.71277655548784,471.51810769923213,1 46047U 20055W   26144.26300922  .00005236  00000+0  18015-3 0  9997,2 46047  53.1605 122.5274 0001318  96.7190 263.3962 15.31741784320648
STARLINK-1527,46048,53.1596,0.0001481,15.31688294,469.76056657378376,471.7892142757282,1 46048U 20055X   26144.19312725  .00004460  00000+0  15545-3 0  9997,2 46048  53.1596 122.8368 0001481  78.2542 281.8626 15.31688294320606
STARLINK-1540,46051,53.1586,0.0001546,15.31694398,469.6978555818632,471.81553351221646,1 46051U 20055AA  26144.17918469 -.00000303  00000+0  20073-5 0  9993,2 46051  53.1586 123.1085 0001546  88.6049 271.5130 15.31694398320640
STARLINK-1541,46052,53.1583,0.0001978,15.79041776,331.8268845845787,334.4818714537241,1 46052U 20055AB  26144.91529806  .00144611  00000+0  78697-3 0  9992,2 46052  53.1583 108.5416 0001978 114.1545 245.9684 15.79041776320870
STARLINK-1543,46053,53.1582,0.0001273,15.3172255,469.8009221892926,471.5446291581793,1 46053U 20055AC  26144.34692532  .00004457  00000+0  15520-3 0  9996,2 46053  53.1582 122.1368 0001273  89.3132 270.8016 15.31722550320668
STARLINK-1548,46054,53.1585,0.0001,15.31708456,470.02990326678264,471.3996736244717,1 46054U 20055AD  26144.94818263  .00002441  00000+0  90368-4 0  9999,2 46054  53.1585 119.4112 0001000  86.5632 273.5484 15.31708456320758
